MALLIGYONG-1            
1 58400U 23179A   24182.86447202  .00007390  00000+0  33383-3 0  9990
2 58400  97.4027  69.4814 0003419 120.4843 239.6731 15.21246520 33802
